GLOBALSTAR M045         
1 25676U 99019A   24350.84925851 -.00000091  00000+0  20144-4 0  9995
2 25676  51.9961 107.8170 0001013 140.2342  38.4545 12.27053320170882
GLOBALSTAR M019         
1 25677U 99019B   24351.80220344  .00000091  00000+0  18898-2 0  9998
2 25677  51.9861 222.6350 0001231  16.7628  79.9275 12.13869277163180
GLOBALSTAR M044         
1 25678U 99019C   24351.76876772 -.00000084  00000+0 -37966-5 0  9990
2 25678  51.9939 151.2657 0007463  58.3032 315.1049 11.90245495149584
GLOBALSTAR M042         
1 25679U 99019D   24351.76261985 -.00000029  00000+0  58959-3 0  9996
2 25679  51.9987 205.9413 0001822 295.7924 162.8372 12.22075024163021
GLOBALSTAR M025         
1 25770U 99031A   24351.76875247 -.00000024  00000+0  13341-2 0  9994
2 25770  51.9791 221.8580 0001207 145.0721 299.5157 11.22558025118886
GLOBALSTAR M049         
1 25771U 99031B   24350.81012916 -.00000046  00000+0  68480-3 0  9995
2 25771  51.9865 249.6260 0004422  65.2995 294.8261 11.12111549 97021
GLOBALSTAR M047         
1 25772U 99031C   24350.82247504 -.00000039  00000+0  84765-3 0  9996
2 25772  51.9834 264.0867 0016130 311.3852  48.5566 11.31925742450347
GLOBALSTAR M052         
1 25773U 99031D   24350.09114664 -.00000085  00000+0 -62868-3 0  9998
2 25773  51.9898   2.5192 0002501 224.8032 168.0974 11.15056010115804
